{
  "type": "FeatureCollection",
  "features": [
    {
      "type": "Feature",
      "properties": {
        "norad_id": 38867,
        "name": "INTELSAT 23 (IS-23)",
        "group": "intelsat",
        "lat": -0.03603388260794612,
        "lon": -7.363682408079637,
        "alt_km": 35797.09567330713,
        "timestamp": "2025-12-10T21:43:21.754404+00:00",
        "meta_object_name": "INTELSAT 23 (IS-23)",
        "meta_object_id": "2012-057A",
        "meta_epoch": "2025-12-09T20:10:10.491744",
        "meta_mean_motion": 1.00260311,
        "meta_eccentricity": 0.00020064,
        "meta_inclination": 0.0432,
        "meta_ra_of_asc_node": 94.7791,
        "meta_arg_of_pericenter": 102.2636,
        "meta_mean_anomaly": 131.2856,
        "meta_ephemeris_type": 0,
        "meta_classification_type": "U",
        "meta_norad_cat_id": 38867,
        "meta_element_set_no": 999,
        "meta_rev_at_epoch": 4805,
        "meta_bstar": 0,
        "meta_mean_motion_dot": -2.82e-06,
        "meta_mean_motion_ddot": 0,
        "tle_line1": "1 38867U 12057A   25343.84039921 -.00000282  00000+0  00000+0 0  9991",
        "tle_line2": "2 38867   0.0432  94.7791 0002006 102.2636 131.2856  1.00260311 48055"
      },
      "geometry": {
        "type": "Point",
        "coordinates": [
          -7.363682408079637,
          -0.03603388260794612
        ]
      }
    },
    {
      "type": "Feature",
      "properties": {
        "norad_id": 39360,
        "name": "FM-6",
        "group": "intelsat",
        "lat": -0.009387851548471727,
        "lon": -70.41788993404205,
        "alt_km": 35792.02877804529,
        "timestamp": "2025-12-10T21:43:21.754416+00:00",
        "meta_object_name": "FM-6",
        "meta_object_id": "2013-058A",
        "meta_epoch": "2025-12-10T08:50:26.824992",
        "meta_mean_motion": 1.00269305,
        "meta_eccentricity": 0.00028874,
        "meta_inclination": 0.0067,
        "meta_ra_of_asc_node": 64.4162,
        "meta_arg_of_pericenter": 109.3403,
        "meta_mean_anomaly": 282.0461,
        "meta_ephemeris_type": 0,
        "meta_classification_type": "U",
        "meta_norad_cat_id": 39360,
        "meta_element_set_no": 999,
        "meta_rev_at_epoch": 4418,
        "meta_bstar": 0,
        "meta_mean_motion_dot": -1.3e-07,
        "meta_mean_motion_ddot": 0,
        "tle_line1": "1 39360U 13058A   25344.36836603 -.00000013  00000+0  00000+0 0  9994",
        "tle_line2": "2 39360   0.0067  64.4162 0002887 109.3403 282.0461  1.00269305 44180"
      },
      "geometry": {
        "type": "Point",
        "coordinates": [
          -70.41788993404205,
          -0.009387851548471727
        ]
      }
    },
    {
      "type": "Feature",
      "properties": {
        "norad_id": 40271,
        "name": "INTELSAT 30 (IS-30)",
        "group": "intelsat",
        "lat": -0.025214071038590184,
        "lon": -49.37205527931883,
        "alt_km": 35790.36603999412,
        "timestamp": "2025-12-10T21:43:21.754427+00:00",
        "meta_object_name": "INTELSAT 30 (IS-30)",
        "meta_object_id": "2014-062A",
        "meta_epoch": "2025-12-10T09:10:12.111168",
        "meta_mean_motion": 1.00269194,
        "meta_eccentricity": 0.00013123,
        "meta_inclination": 0.0161,
        "meta_ra_of_asc_node": 24.5477,
        "meta_arg_of_pericenter": 55.587,
        "meta_mean_anomaly": 41.7075,
        "meta_ephemeris_type": 0,
        "meta_classification_type": "U",
        "meta_norad_cat_id": 40271,
        "meta_element_set_no": 999,
        "meta_rev_at_epoch": 489,
        "meta_bstar": 0,
        "meta_mean_motion_dot": -1.47e-06,
        "meta_mean_motion_ddot": 0,
        "tle_line1": "1 40271U 14062A   25344.38208462 -.00000147  00000+0  00000+0 0  9999",
        "tle_line2": "2 40271   0.0161  24.5477 0001312  55.5870  41.7075  1.00269194  4897"
      },
      "geometry": {
        "type": "Point",
        "coordinates": [
          -49.37205527931883,
          -0.025214071038590184
        ]
      }
    },
    {
      "type": "Feature",
      "properties": {
        "norad_id": 40333,
        "name": "DIRECTV 14",
        "group": "intelsat",
        "lat": -0.01807634310644081,
        "lon": -53.500440325155324,
        "alt_km": 35786.85914425889,
        "timestamp": "2025-12-10T21:43:21.754439+00:00",
        "meta_object_name": "DIRECTV 14",
        "meta_object_id": "2014-078B",
        "meta_epoch": "2025-12-10T10:29:59.960256",
        "meta_mean_motion": 1.00271517,
        "meta_eccentricity": 3.711e-05,
        "meta_inclination": 0.0185,
        "meta_ra_of_asc_node": 333.9339,
        "meta_arg_of_pericenter": 216.2643,
        "meta_mean_anomaly": 307.4998,
        "meta_ephemeris_type": 0,
        "meta_classification_type": "U",
        "meta_norad_cat_id": 40333,
        "meta_element_set_no": 999,
        "meta_rev_at_epoch": 4015,
        "meta_bstar": 0,
        "meta_mean_motion_dot": -1.22e-06,
        "meta_mean_motion_ddot": 0,
        "tle_line1": "1 40333U 14078B   25344.43749954 -.00000122  00000+0  00000+0 0  9990",
        "tle_line2": "2 40333   0.0185 333.9339 0000371 216.2643 307.4998  1.00271517 40151"
      },
      "geometry": {
        "type": "Point",
        "coordinates": [
          -53.500440325155324,
          -0.01807634310644081
        ]
      }
    },
    {
      "type": "Feature",
      "properties": {
        "norad_id": 40663,
        "name": "DIRECTV 15",
        "group": "intelsat",
        "lat": -0.03526339636412075,
        "lon": -57.1437735127884,
        "alt_km": 35786.948999877735,
        "timestamp": "2025-12-10T21:43:21.754450+00:00",
        "meta_object_name": "DIRECTV 15",
        "meta_object_id": "2015-026A",
        "meta_epoch": "2025-12-10T08:12:19.163808",
        "meta_mean_motion": 1.00275799,
        "meta_eccentricity": 5.085e-05,
        "meta_inclination": 0.0413,
        "meta_ra_of_asc_node": 83.8732,
        "meta_arg_of_pericenter": 61.1564,
        "meta_mean_anomaly": 314.5037,
        "meta_ephemeris_type": 0,
        "meta_classification_type": "U",
        "meta_norad_cat_id": 40663,
        "meta_element_set_no": 999,
        "meta_rev_at_epoch": 3857,
        "meta_bstar": 0,
        "meta_mean_motion_dot": -1e-06,
        "meta_mean_motion_ddot": 0,
        "tle_line1": "1 40663U 15026A   25344.34188847 -.00000100  00000+0  00000+0 0  9994",
        "tle_line2": "2 40663   0.0413  83.8732 0000508  61.1564 314.5037  1.00275799 38572"
      },
      "geometry": {
        "type": "Point",
        "coordinates": [
          -57.1437735127884,
          -0.03526339636412075
        ]
      }
    },
    {
      "type": "Feature",
      "properties": {
        "norad_id": 40664,
        "name": "SKY MEXICO-1",
        "group": "intelsat",
        "lat": -0.029559801248234527,
        "lon": -33.035231230157024,
        "alt_km": 35779.30512289755,
        "timestamp": "2025-12-10T21:43:21.754461+00:00",
        "meta_object_name": "SKY MEXICO-1",
        "meta_object_id": "2015-026B",
        "meta_epoch": "2025-12-10T04:15:38.659392",
        "meta_mean_motion": 1.00270655,
        "meta_eccentricity": 0.00027262,
        "meta_inclination": 0.029,
        "meta_ra_of_asc_node": 67.5493,
        "meta_arg_of_pericenter": 207.8932,
        "meta_mean_anomaly": 148.8575,
        "meta_ephemeris_type": 0,
        "meta_classification_type": "U",
        "meta_norad_cat_id": 40664,
        "meta_element_set_no": 999,
        "meta_rev_at_epoch": 3855,
        "meta_bstar": 0,
        "meta_mean_motion_dot": -2.31e-06,
        "meta_mean_motion_ddot": 0,
        "tle_line1": "1 40664U 15026B   25344.17753078 -.00000231  00000+0  00000+0 0  9995",
        "tle_line2": "2 40664   0.0290  67.5493 0002726 207.8932 148.8575  1.00270655 38550"
      },
      "geometry": {
        "type": "Point",
        "coordinates": [
          -33.035231230157024,
          -0.029559801248234527
        ]
      }
    },
    {
      "type": "Feature",
      "properties": {
        "norad_id": 40874,
        "name": "INTELSAT 34 (IS-34)",
        "group": "intelsat",
        "lat": 0.01226656945732457,
        "lon": -9.79075320783996,
        "alt_km": 35788.99526162181,
        "timestamp": "2025-12-10T21:43:21.754473+00:00",
        "meta_object_name": "INTELSAT 34 (IS-34)",
        "meta_object_id": "2015-039A",
        "meta_epoch": "2025-12-10T03:59:38.770944",
        "meta_mean_motion": 1.00269978,
        "meta_eccentricity": 5.547e-05,
        "meta_inclination": 0.0112,
        "meta_ra_of_asc_node": 310.175,
        "meta_arg_of_pericenter": 217.3462,
        "meta_mean_anomaly": 276.0397,
        "meta_ephemeris_type": 0,
        "meta_classification_type": "U",
        "meta_norad_cat_id": 40874,
        "meta_element_set_no": 999,
        "meta_rev_at_epoch": 3773,
        "meta_bstar": 0,
        "meta_mean_motion_dot": -2.82e-06,
        "meta_mean_motion_ddot": 0,
        "tle_line1": "1 40874U 15039A   25344.16642096 -.00000282  00000+0  00000+0 0  9994",
        "tle_line2": "2 40874   0.0112 310.1750 0000554 217.3462 276.0397  1.00269978 37731"
      },
      "geometry": {
        "type": "Point",
        "coordinates": [
          -9.79075320783996,
          0.01226656945732457
        ]
      }
    }
  ]
}